STARLINK-1112           
1 44925U 20001M   23331.71214788 -.00002029  00000+0 -11739-3 0  9995
2 44925  53.0525 126.0007 0001329  96.6686 263.4454 15.06399296214294
STARLINK-1113           
1 44926U 20001N   23331.70847491 -.00000408  00000+0 -85247-5 0  9994
2 44926  53.0536 126.1058 0001239 104.5080 255.6046 15.06400717214988
STARLINK-1114           
1 44927U 20001P   23331.65687182 -.00000080  00000+0  13531-4 0  9999
2 44927  53.0559 126.2509 0001323 107.7565 252.3568 15.06399821214293
STARLINK-1119           
1 44928U 20001Q   23332.39581400  .00004791  00000+0  16515-3 0  9994
2 44928  53.0524 116.7524 0001798  53.9266 306.1901 15.31876565214486
STARLINK-1121           
1 44929U 20001R   23332.38094571 -.00000539  00000+0  70085-6 0  9994
2 44929  53.0489 111.0229 0000502 174.0453 186.0572 15.76734742214569
STARLINK-1123           
1 44930U 20001S   23331.67160759 -.00002006  00000+0 -11579-3 0  9991
2 44930  53.0536 126.1802 0001295  86.0203 274.0934 15.06398366214294
STARLINK-1128           
1 44931U 20001T   23331.62939627  .00012481  00000+0  66209-3 0  9991
2 44931  53.0525 102.4820 0003177 202.2300 157.8555 15.15718400215373
STARLINK-1130 (DARKSAT) 
1 44932U 20001U   23331.72689543 -.00005596  00000+0 -35709-3 0  9994
2 44932  53.0542 125.9324 0001274  97.9330 262.1804 15.06399878215539
STARLINK-1144           
1 44933U 20001V   23331.75270169 -.00001992  00000+0 -11490-3 0  9995
2 44933  53.0542 125.8188 0001494  77.2608 282.8548 15.06397846215593
STARLINK-1071           
1 44934U 20001W   23331.69925397 -.00000561  00000+0 -18788-4 0  9998
2 44934  53.0536 106.0580 0001250  99.3481 260.7649 15.06400321214575
STARLINK-1079           
1 44937U 20001Z   23331.61079440 -.00002531  00000+0 -15106-3 0  9991
2 44937  53.0543 106.4499 0001507  97.7643 262.3517 15.06409817214566
STARLINK-1082           
1 44938U 20001AA  23332.50647379  .00002514  00000+0  18758-3 0  9998
2 44938  53.0561 102.4323 0001401  99.0444 261.0704 15.06401762214695
STARLINK-1083           
1 44939U 20001AB  23332.51383690  .00000675  00000+0  64194-4 0  9995
2 44939  53.0531 102.3994 0001192 102.0167 258.0956 15.06408777214698
STARLINK-1091           
1 44940U 20001AC  23331.66239524 -.00001144  00000+0 -57900-4 0  9999
2 44940  53.0533 106.2229 0001448 108.9825 251.1321 15.06401086214568
STARLINK-1094           
1 44941U 20001AD  23331.61815685 -.00002998  00000+0 -18247-3 0  9991
2 44941  53.0569 106.4230 0001529 108.7291 251.3864 15.06397328214564
STARLINK-1096           
1 44942U 20001AE  23331.67611546  .00014699  00000+0  60331-3 0  9998
2 44942  53.0174  68.2051 0002362  16.3579 343.7493 15.24457838215111
STARLINK-1100           
1 44943U 20001AF  23332.51015480  .00000642  00000+0  61984-4 0  9997
2 44943  53.0545 102.4193 0001180  75.2573 284.8547 15.06404568214696
STARLINK-1108           
1 44944U 20001AG  23331.76191617 -.00000136  00000+0  97407-5 0  9990
2 44944  53.0554 105.7753 0001313  88.3868 271.7272 15.06395224214581
STARLINK-1109           
1 44945U 20001AH  23332.52120982 -.00000441  00000+0 -10699-4 0  9990
2 44945  53.0544 102.3659 0001231 100.0920 260.0208 15.06410141214697
STARLINK-1110           
1 44946U 20001AJ  23331.94554055  .00060013  00000+0  77278-3 0  9992
2 44946  53.0145 355.6693 0001693  51.1585 308.9577 15.58488774216092
STARLINK-1122           
1 44949U 20001AM  23331.64028851 -.00000313  00000+0 -21270-5 0  9994
2 44949  53.0539 106.3238 0001299  78.6259 281.4876 15.06390637214562
STARLINK-1126           
1 44951U 20001AP  23331.97374806  .00061585  00000+0  82439-3 0  9995
2 44951  53.0164 352.8846 0001874 261.7885  98.2913 15.57442492217428
STARLINK-1117           
1 44952U 20001AQ  23331.68820364  .00000163  00000+0  29854-4 0  9997
2 44952  53.0569 106.1126 0001373  93.8163 266.2983 15.06389323214570
STARLINK-1124           
1 44953U 20001AR  23332.58334491  .00197869  00000+0  97678-3 0  9997
2 44953  53.0477  57.0147 0003675  21.8896  77.1957 15.81008168216612
STARLINK-1066           
1 44954U 20001AS  23332.51568718  .00006267  00000+0  43920-3 0  9994
2 44954  53.0541  82.3924 0001369  69.9007 290.2130 15.06404764214926
STARLINK-1069           
1 44955U 20001AT  23331.91667824  .00245755  00000+0  86906-3 0  9994
2 44955  53.0397  40.6449 0001587  49.7682 233.2864 15.87874700  6056
STARLINK-1070           
1 44956U 20001AU  23332.58334491  .00321339  00000+0  11636-2 0  9990
2 44956  53.0388  10.0767 0007550  44.6828 138.8992 15.87173400215999
STARLINK-1076           
1 44959U 20001AX  23331.63105846 -.00002288  00000+0 -13485-3 0  9994
2 44959  53.0546  86.3595 0001389  92.0857 268.0291 15.06381604214845
STARLINK-1080           
1 44961U 20001AZ  23332.50096346  .00011424  00000+0  78440-3 0  9990
2 44961  53.0539  82.4572 0001246  66.8344 293.2776 15.06409056214989
STARLINK-1086           
1 44964U 20001BC  23331.61649659 -.00001895  00000+0 -75785-5 0  9999
2 44964  53.0505  43.7326 0001332 121.2614 238.8536 15.76722301215443
