OBJECT_NAME,OBJECT_ID,EPOCH,MEAN_MOTION,ECCENTRICITY,INCLINATION,RA_OF_ASC_NODE,ARG_OF_PERICENTER,MEAN_ANOMALY,EPHEMERIS_TYPE,CLASSIFICATION_TYPE,NORAD_CAT_ID,ELEMENT_SET_NO,REV_AT_EPOCH,BSTAR,MEAN_MOTION_DOT,MEAN_MOTION_DDOT
STARLINK-1112,2020-001M,2023-11-27T17:05:29.576832,15.06399296,.0001329,53.0525,126.0007,96.6686,263.4454,0,U,44925,999,21429,-.11739E-3,-.2029E-4,0
STARLINK-1113,2020-001N,2023-11-27T17:00:12.232224,15.06400717,.0001239,53.0536,126.1058,104.5080,255.6046,0,U,44926,999,21498,-.85247E-5,-.408E-5,0
STARLINK-1114,2020-001P,2023-11-27T15:45:53.725248,15.06399821,.0001323,53.0559,126.2509,107.7565,252.3568,0,U,44927,999,21429,.13531E-4,-.8E-6,0
STARLINK-1119,2020-001Q,2023-11-28T09:29:58.329600,15.31876565,.0001798,53.0524,116.7524,53.9266,306.1901,0,U,44928,999,21448,.16515E-3,.4791E-4,0
STARLINK-1121,2020-001R,2023-11-28T09:08:33.709344,15.76734742,.0000502,53.0489,111.0229,174.0453,186.0572,0,U,44929,999,21456,.70085E-6,-.539E-5,0
STARLINK-1123,2020-001S,2023-11-27T16:07:06.895776,15.06398366,.0001295,53.0536,126.1802,86.0203,274.0934,0,U,44930,999,21429,-.11579E-3,-.2006E-4,0
STARLINK-1128,2020-001T,2023-11-27T15:06:19.837728,15.15718400,.0003177,53.0525,102.4820,202.2300,157.8555,0,U,44931,999,21537,.66209E-3,.12481E-3,0
STARLINK-1130 (DARKSAT),2020-001U,2023-11-27T17:26:43.765152,15.06399878,.0001274,53.0542,125.9324,97.9330,262.1804,0,U,44932,999,21553,-.35709E-3,-.5596E-4,0
STARLINK-1144,2020-001V,2023-11-27T18:03:53.426016,15.06397846,.0001494,53.0542,125.8188,77.2608,282.8548,0,U,44933,999,21559,-.1149E-3,-.1992E-4,0
STARLINK-1071,2020-001W,2023-11-27T16:46:55.543008,15.06400321,.000125,53.0536,106.0580,99.3481,260.7649,0,U,44934,999,21457,-.18788E-4,-.561E-5,0
STARLINK-1079,2020-001Z,2023-11-27T14:39:32.636160,15.06409817,.0001507,53.0543,106.4499,97.7643,262.3517,0,U,44937,999,21456,-.15106E-3,-.2531E-4,0
STARLINK-1082,2020-001AA,2023-11-28T12:09:19.335456,15.06401762,.0001401,53.0561,102.4323,99.0444,261.0704,0,U,44938,999,21469,.18758E-3,.2514E-4,0
STARLINK-1083,2020-001AB,2023-11-28T12:19:55.508160,15.06408777,.0001192,53.0531,102.3994,102.0167,258.0956,0,U,44939,999,21469,.64194E-4,.675E-5,0
STARLINK-1091,2020-001AC,2023-11-27T15:53:50.948736,15.06401086,.0001448,53.0533,106.2229,108.9825,251.1321,0,U,44940,999,21456,-.579E-4,-.1144E-4,0
STARLINK-1094,2020-001AD,2023-11-27T14:50:08.751840,15.06397328,.0001529,53.0569,106.4230,108.7291,251.3864,0,U,44941,999,21456,-.18247E-3,-.2998E-4,0
STARLINK-1096,2020-001AE,2023-11-27T16:13:36.375744,15.24457838,.0002362,53.0174,68.2051,16.3579,343.7493,0,U,44942,999,21511,.60331E-3,.14699E-3,0
STARLINK-1100,2020-001AF,2023-11-28T12:14:37.374720,15.06404568,.000118,53.0545,102.4193,75.2573,284.8547,0,U,44943,999,21469,.61984E-4,.642E-5,0
STARLINK-1108,2020-001AG,2023-11-27T18:17:09.557088,15.06395224,.0001313,53.0554,105.7753,88.3868,271.7272,0,U,44944,999,21458,.97407E-5,-.136E-5,0
STARLINK-1109,2020-001AH,2023-11-28T12:30:32.528448,15.06410141,.0001231,53.0544,102.3659,100.0920,260.0208,0,U,44945,999,21469,-.10699E-4,-.441E-5,0
STARLINK-1110,2020-001AJ,2023-11-27T22:41:34.703520,15.58488774,.0001693,53.0145,355.6693,51.1585,308.9577,0,U,44946,999,21609,.77278E-3,.60013E-3,0
STARLINK-1122,2020-001AM,2023-11-27T15:22:00.927264,15.06390637,.0001299,53.0539,106.3238,78.6259,281.4876,0,U,44949,999,21456,-.2127E-5,-.313E-5,0
STARLINK-1126,2020-001AP,2023-11-27T23:22:11.832384,15.57442492,.0001874,53.0164,352.8846,261.7885,98.2913,0,U,44951,999,21742,.82439E-3,.61585E-3,0
STARLINK-1117,2020-001AQ,2023-11-27T16:31:00.794496,15.06389323,.0001373,53.0569,106.1126,93.8163,266.2983,0,U,44952,999,21457,.29854E-4,.163E-5,0
STARLINK-1124,2020-001AR,2023-11-28T14:00:01.000224,15.81008168,.0003675,53.0477,57.0147,21.8896,77.1957,0,U,44953,999,21661,.97678E-3,.197869E-2,0
STARLINK-1066,2020-001AS,2023-11-28T12:22:35.372352,15.06404764,.0001369,53.0541,82.3924,69.9007,290.2130,0,U,44954,999,21492,.4392E-3,.6267E-4,0
STARLINK-1069,2020-001AT,2023-11-27T22:00:00.999936,15.87874700,.0001587,53.0397,40.6449,49.7682,233.2864,0,U,44955,999,605,.86906E-3,.245755E-2,0
STARLINK-1070,2020-001AU,2023-11-28T14:00:01.000224,15.87173400,.000755,53.0388,10.0767,44.6828,138.8992,0,U,44956,999,21599,.11636E-2,.321339E-2,0
STARLINK-1076,2020-001AX,2023-11-27T15:08:43.450944,15.06381604,.0001389,53.0546,86.3595,92.0857,268.0291,0,U,44959,999,21484,-.13485E-3,-.2288E-4,0
STARLINK-1080,2020-001AZ,2023-11-28T12:01:23.242944,15.06409056,.0001246,53.0539,82.4572,66.8344,293.2776,0,U,44961,999,21498,.7844E-3,.11424E-3,0
STARLINK-1086,2020-001BC,2023-11-27T14:47:45.305376,15.76722301,.0001332,53.0505,43.7326,121.2614,238.8536,0,U,44964,999,21544,-.75785E-5,-.1895E-4,0
